{
  "type": "FeatureCollection",
  "features": [
    {
      "type": "Feature",
      "properties": {
        "norad_id": 31287,
        "name": "FENGYUN 1C DEB",
        "group": "fengyun-1c-debris",
        "lat": -8.581402421016568,
        "lon": 55.60398112964081,
        "alt_km": 787.4304526232136,
        "timestamp": "2025-12-23T09:49:07.364985+00:00",
        "meta_object_name": "FENGYUN 1C DEB",
        "meta_object_id": "1999-025BNV",
        "meta_epoch": "2025-12-17T09:14:55.199040",
        "meta_mean_motion": 14.280549,
        "meta_eccentricity": 0.0027206,
        "meta_inclination": 99.41,
        "meta_ra_of_asc_node": 47.6846,
        "meta_arg_of_pericenter": 50.1324,
        "meta_mean_anomaly": 310.2241,
        "meta_ephemeris_type": 0,
        "meta_classification_type": "U",
        "meta_norad_cat_id": 31287,
        "meta_element_set_no": 999,
        "meta_rev_at_epoch": 96752,
        "meta_bstar": 0.0011667317,
        "meta_mean_motion_dot": 2.86e-05,
        "meta_mean_motion_ddot": 0,
        "tle_line1": "1 31287U 99025BNV 25351.38536110  .00002860  00000+0  11667-2 0  9997",
        "tle_line2": "2 31287  99.4100  47.6846 0027206  50.1324 310.2241 14.28054900967528"
      },
      "geometry": {
        "type": "Point",
        "coordinates": [
          55.60398112964081,
          -8.581402421016568
        ]
      }
    },
    {
      "type": "Feature",
      "properties": {
        "norad_id": 31288,
        "name": "FENGYUN 1C DEB",
        "group": "fengyun-1c-debris",
        "lat": -45.308837380578765,
        "lon": -32.251493319661215,
        "alt_km": 571.0724123071068,
        "timestamp": "2025-12-23T09:49:07.364998+00:00",
        "meta_object_name": "FENGYUN 1C DEB",
        "meta_object_id": "1999-025BNW",
        "meta_epoch": "2025-12-21T22:11:33.401760",
        "meta_mean_motion": 14.96636507,
        "meta_eccentricity": 0.00230369,
        "meta_inclination": 98.7478,
        "meta_ra_of_asc_node": 155.0444,
        "meta_arg_of_pericenter": 270.1937,
        "meta_mean_anomaly": 242.2919,
        "meta_ephemeris_type": 0,
        "meta_classification_type": "U",
        "meta_norad_cat_id": 31288,
        "meta_element_set_no": 999,
        "meta_rev_at_epoch": 97694,
        "meta_bstar": 0.005670697,
        "meta_mean_motion_dot": 0.00065498,
        "meta_mean_motion_ddot": 0,
        "tle_line1": "1 31288U 99025BNW 25355.92469215  .00065498  00000+0  56707-2 0  9993",
        "tle_line2": "2 31288  98.7478 155.0444 0023036 270.1937 242.2919 14.96636507976944"
      },
      "geometry": {
        "type": "Point",
        "coordinates": [
          -32.251493319661215,
          -45.308837380578765
        ]
      }
    },
    {
      "type": "Feature",
      "properties": {
        "norad_id": 31293,
        "name": "FENGYUN 1C DEB",
        "group": "fengyun-1c-debris",
        "lat": 24.02523381745048,
        "lon": -171.37222471220645,
        "alt_km": 739.2008598020911,
        "timestamp": "2025-12-23T09:49:07.365008+00:00",
        "meta_object_name": "FENGYUN 1C DEB",
        "meta_object_id": "1999-025BPB",
        "meta_epoch": "2025-12-22T06:13:51.554208",
        "meta_mean_motion": 14.30816344,
        "meta_eccentricity": 0.01257922,
        "meta_inclination": 98.4224,
        "meta_ra_of_asc_node": 3.727,
        "meta_arg_of_pericenter": 216.5399,
        "meta_mean_anomaly": 142.7154,
        "meta_ephemeris_type": 0,
        "meta_classification_type": "U",
        "meta_norad_cat_id": 31293,
        "meta_element_set_no": 999,
        "meta_rev_at_epoch": 65380,
        "meta_bstar": 6.4145544e-05,
        "meta_mean_motion_dot": 1.39e-06,
        "meta_mean_motion_ddot": 0,
        "tle_line1": "1 31293U 99025BPB 25356.25962447  .00000139  00000+0  64146-4 0  9990",
        "tle_line2": "2 31293  98.4224   3.7270 0125792 216.5399 142.7154 14.30816344653809"
      },
      "geometry": {
        "type": "Point",
        "coordinates": [
          -171.37222471220645,
          24.02523381745048
        ]
      }
    },
    {
      "type": "Feature",
      "properties": {
        "norad_id": 31294,
        "name": "FENGYUN 1C DEB",
        "group": "fengyun-1c-debris",
        "lat": -13.218611395955703,
        "lon": -5.402132289202158,
        "alt_km": 787.6580955911586,
        "timestamp": "2025-12-23T09:49:07.365018+00:00",
        "meta_object_name": "FENGYUN 1C DEB",
        "meta_object_id": "1999-025BPC",
        "meta_epoch": "2025-12-19T22:44:39.754176",
        "meta_mean_motion": 14.15326352,
        "meta_eccentricity": 0.0099306,
        "meta_inclination": 98.5431,
        "meta_ra_of_asc_node": 349.2579,
        "meta_arg_of_pericenter": 320.3267,
        "meta_mean_anomaly": 39.0671,
        "meta_ephemeris_type": 0,
        "meta_classification_type": "U",
        "meta_norad_cat_id": 31294,
        "meta_element_set_no": 999,
        "meta_rev_at_epoch": 96955,
        "meta_bstar": 0.00037135,
        "meta_mean_motion_dot": 7.16e-06,
        "meta_mean_motion_ddot": 0,
        "tle_line1": "1 31294U 99025BPC 25353.94768234  .00000716  00000+0  37135-3 0  9990",
        "tle_line2": "2 31294  98.5431 349.2579 0099306 320.3267  39.0671 14.15326352969552"
      },
      "geometry": {
        "type": "Point",
        "coordinates": [
          -5.402132289202158,
          -13.218611395955703
        ]
      }
    },
    {
      "type": "Feature",
      "properties": {
        "norad_id": 31295,
        "name": "FENGYUN 1C DEB",
        "group": "fengyun-1c-debris",
        "lat": -55.030798557019736,
        "lon": -166.59673732235987,
        "alt_km": 904.6903225093283,
        "timestamp": "2025-12-23T09:49:07.365028+00:00",
        "meta_object_name": "FENGYUN 1C DEB",
        "meta_object_id": "1999-025BPD",
        "meta_epoch": "2025-12-22T18:36:54.280800",
        "meta_mean_motion": 13.96833755,
        "meta_eccentricity": 0.00771811,
        "meta_inclination": 98.3163,
        "meta_ra_of_asc_node": 180.7589,
        "meta_arg_of_pericenter": 222.7401,
        "meta_mean_anomaly": 136.7745,
        "meta_ephemeris_type": 0,
        "meta_classification_type": "U",
        "meta_norad_cat_id": 31295,
        "meta_element_set_no": 999,
        "meta_rev_at_epoch": 95643,
        "meta_bstar": -8.476048e-06,
        "meta_mean_motion_dot": -5e-07,
        "meta_mean_motion_ddot": 0,
        "tle_line1": "1 31295U 99025BPD 25356.77562825 -.00000050  00000+0 -84760-5 0  9994",
        "tle_line2": "2 31295  98.3163 180.7589 0077181 222.7401 136.7745 13.96833755956432"
      },
      "geometry": {
        "type": "Point",
        "coordinates": [
          -166.59673732235987,
          -55.030798557019736
        ]
      }
    },
    {
      "type": "Feature",
      "properties": {
        "norad_id": 31296,
        "name": "FENGYUN 1C DEB",
        "group": "fengyun-1c-debris",
        "lat": 76.85986261830293,
        "lon": 136.6822661374141,
        "alt_km": 644.7179336887366,
        "timestamp": "2025-12-23T09:49:07.365040+00:00",
        "meta_object_name": "FENGYUN 1C DEB",
        "meta_object_id": "1999-025BPE",
        "meta_epoch": "2025-12-22T17:03:09.488736",
        "meta_mean_motion": 14.71918726,
        "meta_eccentricity": 0.00197243,
        "meta_inclination": 99.0675,
        "meta_ra_of_asc_node": 272.7399,
        "meta_arg_of_pericenter": 179.982,
        "meta_mean_anomaly": 180.1388,
        "meta_ephemeris_type": 0,
        "meta_classification_type": "U",
        "meta_norad_cat_id": 31296,
        "meta_element_set_no": 999,
        "meta_rev_at_epoch": 97496,
        "meta_bstar": 0.004205009,
        "meta_mean_motion_dot": 0.00026463,
        "meta_mean_motion_ddot": 0,
        "tle_line1": "1 31296U 99025BPE 25356.71052649  .00026463  00000+0  42050-2 0  9994",
        "tle_line2": "2 31296  99.0675 272.7399 0019724 179.9820 180.1388 14.71918726974967"
      },
      "geometry": {
        "type": "Point",
        "coordinates": [
          136.6822661374141,
          76.85986261830293
        ]
      }
    },
    {
      "type": "Feature",
      "properties": {
        "norad_id": 31297,
        "name": "FENGYUN 1C DEB",
        "group": "fengyun-1c-debris",
        "lat": 12.964260693252635,
        "lon": 132.99724222415892,
        "alt_km": 680.6277126950263,
        "timestamp": "2025-12-23T09:49:07.365051+00:00",
        "meta_object_name": "FENGYUN 1C DEB",
        "meta_object_id": "1999-025BPF",
        "meta_epoch": "2025-12-21T08:27:04.379328",
        "meta_mean_motion": 14.57108427,
        "meta_eccentricity": 0.01395937,
        "meta_inclination": 98.9347,
        "meta_ra_of_asc_node": 132.8672,
        "meta_arg_of_pericenter": 96.8123,
        "meta_mean_anomaly": 294.1487,
        "meta_ephemeris_type": 0,
        "meta_classification_type": "U",
        "meta_norad_cat_id": 31297,
        "meta_element_set_no": 999,
        "meta_rev_at_epoch": 99441,
        "meta_bstar": 0.00025620154,
        "meta_mean_motion_dot": 1.259e-05,
        "meta_mean_motion_ddot": 0,
        "tle_line1": "1 31297U 99025BPF 25355.35213402  .00001259  00000+0  25620-3 0  9991",
        "tle_line2": "2 31297  98.9347 132.8672 0139593  96.8123 294.1487 14.57108427994413"
      },
      "geometry": {
        "type": "Point",
        "coordinates": [
          132.99724222415892,
          12.964260693252635
        ]
      }
    }
  ]
}